[
  {
    "OBJECT_NAME": "QIANFAN-123",
    "OBJECT_ID": "2026-075Q",
    "EPOCH": "2026-04-17T20:27:59.526720",
    "MEAN_MOTION": 14.23608656,
    "ECCENTRICITY": 0.00147169,
    "INCLINATION": 88.9909,
    "RA_OF_ASC_NODE": 327.5266,
    "ARG_OF_PERICENTER": 179.2355,
    "MEAN_ANOMALY": 180.8863,
    "EPHEMERIS_TYPE": 0,
    "CLASSIFICATION_TYPE": "U",
    "NORAD_CAT_ID": 68650,
    "ELEMENT_SET_NO": 999,
    "REV_AT_EPOCH": 143,
    "BSTAR": 0.00010472848,
    "MEAN_MOTION_DOT": 2.53e-06,
    "MEAN_MOTION_DDOT": 0
  },
  {
    "OBJECT_NAME": "QIANFAN-124",
    "OBJECT_ID": "2026-075R",
    "EPOCH": "2026-04-17T22:02:06.240192",
    "MEAN_MOTION": 14.26079194,
    "ECCENTRICITY": 0.00149095,
    "INCLINATION": 88.9911,
    "RA_OF_ASC_NODE": 327.5179,
    "ARG_OF_PERICENTER": 180.5517,
    "MEAN_ANOMALY": 179.5663,
    "EPHEMERIS_TYPE": 0,
    "CLASSIFICATION_TYPE": "U",
    "NORAD_CAT_ID": 68651,
    "ELEMENT_SET_NO": 999,
    "REV_AT_EPOCH": 147,
    "BSTAR": 0.00014458145,
    "MEAN_MOTION_DOT": 3.6e-06,
    "MEAN_MOTION_DDOT": 0
  },
  {
    "OBJECT_NAME": "QIANFAN-125",
    "OBJECT_ID": "2026-075S",
    "EPOCH": "2026-04-17T22:01:47.622720",
    "MEAN_MOTION": 14.26100363,
    "ECCENTRICITY": 0.0014451,
    "INCLINATION": 88.9911,
    "RA_OF_ASC_NODE": 327.5179,
    "ARG_OF_PERICENTER": 181.3716,
    "MEAN_ANOMALY": 178.7441,
    "EPHEMERIS_TYPE": 0,
    "CLASSIFICATION_TYPE": "U",
    "NORAD_CAT_ID": 68652,
    "ELEMENT_SET_NO": 999,
    "REV_AT_EPOCH": 147,
    "BSTAR": 0.00013090209,
    "MEAN_MOTION_DOT": 3.28e-06,
    "MEAN_MOTION_DDOT": 0
  },
  {
    "OBJECT_NAME": "QIANFAN-126",
    "OBJECT_ID": "2026-075T",
    "EPOCH": "2026-04-17T22:01:27.756768",
    "MEAN_MOTION": 14.25571697,
    "ECCENTRICITY": 0.00145045,
    "INCLINATION": 88.9907,
    "RA_OF_ASC_NODE": 327.5185,
    "ARG_OF_PERICENTER": 183.4592,
    "MEAN_ANOMALY": 176.6503,
    "EPHEMERIS_TYPE": 0,
    "CLASSIFICATION_TYPE": "U",
    "NORAD_CAT_ID": 68653,
    "ELEMENT_SET_NO": 999,
    "REV_AT_EPOCH": 147,
    "BSTAR": -0.88025651,
    "MEAN_MOTION_DOT": -0.01931791,
    "MEAN_MOTION_DDOT": 0
  },
  {
    "OBJECT_NAME": "CZ-8 R/B",
    "OBJECT_ID": "2026-075U",
    "EPOCH": "2026-04-17T21:23:10.912992",
    "MEAN_MOTION": 14.40034349,
    "ECCENTRICITY": 0.00736577,
    "INCLINATION": 88.9901,
    "RA_OF_ASC_NODE": 327.4926,
    "ARG_OF_PERICENTER": 86.0497,
    "MEAN_ANOMALY": 274.912,
    "EPHEMERIS_TYPE": 0,
    "CLASSIFICATION_TYPE": "U",
    "NORAD_CAT_ID": 68654,
    "ELEMENT_SET_NO": 999,
    "REV_AT_EPOCH": 147,
    "BSTAR": 2.3614785e-05,
    "MEAN_MOTION_DOT": 9.3e-07,
    "MEAN_MOTION_DDOT": 0
  },
  {
    "OBJECT_NAME": "HULIANWANG DIGUI-164",
    "OBJECT_ID": "2026-076A",
    "EPOCH": "2026-04-17T18:28:53.171904",
    "MEAN_MOTION": 13.79807585,
    "ECCENTRICITY": 0.00047436,
    "INCLINATION": 86.4949,
    "RA_OF_ASC_NODE": 65.0716,
    "ARG_OF_PERICENTER": 181.9188,
    "MEAN_ANOMALY": 178.196,
    "EPHEMERIS_TYPE": 0,
    "CLASSIFICATION_TYPE": "U",
    "NORAD_CAT_ID": 68656,
    "ELEMENT_SET_NO": 999,
    "REV_AT_EPOCH": 124,
    "BSTAR": -0.00092442094,
    "MEAN_MOTION_DOT": -9.39e-06,
    "MEAN_MOTION_DDOT": 0
  },
  {
    "OBJECT_NAME": "HULIANWANG DIGUI-165",
    "OBJECT_ID": "2026-076B",
    "EPOCH": "2026-04-17T14:58:34.788864",
    "MEAN_MOTION": 13.805071,
    "ECCENTRICITY": 0.00052334,
    "INCLINATION": 86.4963,
    "RA_OF_ASC_NODE": 65.1265,
    "ARG_OF_PERICENTER": 180.177,
    "MEAN_ANOMALY": 179.9395,
    "EPHEMERIS_TYPE": 0,
    "CLASSIFICATION_TYPE": "U",
    "NORAD_CAT_ID": 68657,
    "ELEMENT_SET_NO": 999,
    "REV_AT_EPOCH": 122,
    "BSTAR": 0.00012653155,
    "MEAN_MOTION_DOT": 1.49e-06,
    "MEAN_MOTION_DDOT": 0
  },
  {
    "OBJECT_NAME": "HULIANWANG DIGUI-166",
    "OBJECT_ID": "2026-076C",
    "EPOCH": "2026-04-17T20:09:34.882848",
    "MEAN_MOTION": 13.80691435,
    "ECCENTRICITY": 0.00037336,
    "INCLINATION": 86.4941,
    "RA_OF_ASC_NODE": 65.0374,
    "ARG_OF_PERICENTER": 170.5232,
    "MEAN_ANOMALY": 189.6005,
    "EPHEMERIS_TYPE": 0,
    "CLASSIFICATION_TYPE": "U",
    "NORAD_CAT_ID": 68658,
    "ELEMENT_SET_NO": 999,
    "REV_AT_EPOCH": 125,
    "BSTAR": -0.00051444295,
    "MEAN_MOTION_DOT": -5.23e-06,
    "MEAN_MOTION_DDOT": 0
  },
  {
    "OBJECT_NAME": "HULIANWANG DIGUI-167",
    "OBJECT_ID": "2026-076D",
    "EPOCH": "2026-04-17T20:06:53.852256",
    "MEAN_MOTION": 13.81315655,
    "ECCENTRICITY": 0.00044092,
    "INCLINATION": 86.4949,
    "RA_OF_ASC_NODE": 65.0442,
    "ARG_OF_PERICENTER": 157.5896,
    "MEAN_ANOMALY": 202.5464,
    "EPHEMERIS_TYPE": 0,
    "CLASSIFICATION_TYPE": "U",
    "NORAD_CAT_ID": 68659,
    "ELEMENT_SET_NO": 999,
    "REV_AT_EPOCH": 125,
    "BSTAR": -6.528612e-05,
    "MEAN_MOTION_DOT": -5.2e-07,
    "MEAN_MOTION_DDOT": 0
  },
  {
    "OBJECT_NAME": "HULIANWANG DIGUI-168",
    "OBJECT_ID": "2026-076E",
    "EPOCH": "2026-04-16T18:00:53.923968",
    "MEAN_MOTION": 13.82964241,
    "ECCENTRICITY": 0.00064458,
    "INCLINATION": 86.494,
    "RA_OF_ASC_NODE": 65.4459,
    "ARG_OF_PERICENTER": 175.0396,
    "MEAN_ANOMALY": 185.0836,
    "EPHEMERIS_TYPE": 0,
    "CLASSIFICATION_TYPE": "U",
    "NORAD_CAT_ID": 68660,
    "ELEMENT_SET_NO": 999,
    "REV_AT_EPOCH": 109,
    "BSTAR": -0.00064055911,
    "MEAN_MOTION_DOT": -6.82e-06,
    "MEAN_MOTION_DDOT": 0
  },
  {
    "OBJECT_NAME": "CZ-6A R/B",
    "OBJECT_ID": "2026-076F",
    "EPOCH": "2026-04-17T22:53:31.419168",
    "MEAN_MOTION": 14.09391613,
    "ECCENTRICITY": 0.010713,
    "INCLINATION": 86.5067,
    "RA_OF_ASC_NODE": 64.8583,
    "ARG_OF_PERICENTER": 82.6685,
    "MEAN_ANOMALY": 278.6658,
    "EPHEMERIS_TYPE": 0,
    "CLASSIFICATION_TYPE": "U",
    "NORAD_CAT_ID": 68661,
    "ELEMENT_SET_NO": 999,
    "REV_AT_EPOCH": 129,
    "BSTAR": 1.7477079e-05,
    "MEAN_MOTION_DOT": 5.2e-07,
    "MEAN_MOTION_DDOT": 0
  },
  {
    "OBJECT_NAME": "GUOWANG TEST OBJECT A",
    "OBJECT_ID": "2026-078A",
    "EPOCH": "2026-04-17T22:58:27.787584",
    "MEAN_MOTION": 13.68813724,
    "ECCENTRICITY": 0.00080627,
    "INCLINATION": 86.4978,
    "RA_OF_ASC_NODE": 303.5522,
    "ARG_OF_PERICENTER": 265.9466,
    "MEAN_ANOMALY": 94.0772,
    "EPHEMERIS_TYPE": 0,
    "CLASSIFICATION_TYPE": "U",
    "NORAD_CAT_ID": 68687,
    "ELEMENT_SET_NO": 999,
    "REV_AT_EPOCH": 87,
    "BSTAR": 0.00040504273,
    "MEAN_MOTION_DOT": 3.65e-06,
    "MEAN_MOTION_DDOT": 0
  },
  {
    "OBJECT_NAME": "GUOWANG TEST OBJECT B",
    "OBJECT_ID": "2026-078B",
    "EPOCH": "2026-04-17T23:59:27.637152",
    "MEAN_MOTION": 14.21574404,
    "ECCENTRICITY": 0.0252008,
    "INCLINATION": 86.5863,
    "RA_OF_ASC_NODE": 303.4304,
    "ARG_OF_PERICENTER": 4.3786,
    "MEAN_ANOMALY": 355.9523,
    "EPHEMERIS_TYPE": 0,
    "CLASSIFICATION_TYPE": "U",
    "NORAD_CAT_ID": 68688,
    "ELEMENT_SET_NO": 999,
    "REV_AT_EPOCH": 91,
    "BSTAR": 8.2704917e-05,
    "MEAN_MOTION_DOT": 2.71e-06,
    "MEAN_MOTION_DDOT": 0
  },
  {
    "OBJECT_NAME": "CYGNUS NG-24",
    "OBJECT_ID": "2026-079A",
    "EPOCH": "2026-04-17T19:29:48.700608",
    "MEAN_MOTION": 15.48805751,
    "ECCENTRICITY": 0.00065681,
    "INCLINATION": 51.6328,
    "RA_OF_ASC_NODE": 238.9038,
    "ARG_OF_PERICENTER": 319.0464,
    "MEAN_ANOMALY": 41.003,
    "EPHEMERIS_TYPE": 0,
    "CLASSIFICATION_TYPE": "U",
    "NORAD_CAT_ID": 68689,
    "ELEMENT_SET_NO": 999,
    "REV_AT_EPOCH": 94,
    "BSTAR": 0.0001531852,
    "MEAN_MOTION_DOT": 7.944e-05,
    "MEAN_MOTION_DDOT": 0
  }
]