QIANFAN-123
1 68650U 26075Q   26107.85277230  .00000253  00000+0  10473-3 0  9992
2 68650  88.9909 327.5266 0014716 179.2355 180.8863 14.23608656  1435
QIANFAN-124
1 68651U 26075R   26107.91812778  .00000360  00000+0  14458-3 0  9998
2 68651  88.9911 327.5179 0014909 180.5517 179.5663 14.26079194  1470
QIANFAN-125
1 68652U 26075S   26107.91791230  .00000328  00000+0  13090-3 0  9993
2 68652  88.9911 327.5179 0014451 181.3716 178.7441 14.26100363  1471
QIANFAN-126
1 68653U 26075T   26107.91768237 -.01931791  00000+0 -88026+0 0  9992
2 68653  88.9907 327.5185 0014504 183.4592 176.6503 14.25571697  1475
HULIANWANG DIGUI-164
1 68656U 26076A   26107.77005986 -.00000939  00000+0 -92442-3 0  9996
2 68656  86.4949  65.0716 0004743 181.9188 178.1960 13.79807585  1244
HULIANWANG DIGUI-165
1 68657U 26076B   26107.62401376  .00000149  00000+0  12653-3 0  9991
2 68657  86.4963  65.1265 0005233 180.1770 179.9395 13.80507100  1225
HULIANWANG DIGUI-166
1 68658U 26076C   26107.83998707 -.00000523  00000+0 -51444-3 0  9993
2 68658  86.4941  65.0374 0003733 170.5232 189.6005 13.80691435  1255
HULIANWANG DIGUI-167
1 68659U 26076D   26107.83812329 -.00000052  00000+0 -65286-4 0  9996
2 68659  86.4949  65.0442 0004409 157.5896 202.5464 13.81315655  1254
HULIANWANG DIGUI-168
1 68660U 26076E   26106.75062412 -.00000682  00000+0 -64056-3 0  9990
2 68660  86.4940  65.4459 0006445 175.0396 185.0836 13.82964241  1093
GUOWANG TEST OBJECT A
1 68687U 26078A   26107.95726606  .00000365  00000+0  40504-3 0  9994
2 68687  86.4978 303.5522 0008062 265.9466  94.0772 13.68813724   870
CYGNUS NG-24
1 68689U 26079A   26107.81236922  .00007944  00000+0  15319-3 0  9995
2 68689  51.6328 238.9038 0006568 319.0464  41.0030 15.48805751   944
CZ-8 R/B
1 68654U 26075U   26107.89109853  .00000093  00000+0  23615-4 0  9990
2 68654  88.9901 327.4926 0073657  86.0497 274.9120 14.40034349  1470
CZ-6A R/B
1 68661U 26076F   26107.95383587  .00000052  00000+0  17477-4 0  9998
2 68661  86.5067  64.8583 0107130  82.6685 278.6658 14.09391613  1293
GUOWANG TEST OBJECT B
1 68688U 26078B   26107.99962543  .00000271  00000+0  82705-4 0  9997
2 68688  86.5863 303.4304 0252008   4.3786 355.9523 14.21574404   910
